TIANMU-1 20             
1 58661U 23208B   26177.59459641  .00008257  00000+0  26224-3 0  9997
2 58661  97.4451 294.5882 0005574 292.7105  67.3547 15.32897501138862
TIANMU-1 21             
1 58662U 23208C   26177.63389242  .00009277  00000+0  27343-3 0  9998
2 58662  97.4510 297.3493 0005661 282.1216  77.9393 15.35235333139017
TIANMU-1 22             
1 58663U 23208D   26177.61441771  .00007659  00000+0  25685-3 0  9992
2 58663  97.4505 293.8910 0002408 322.2493  37.8579 15.31181741138778
TIANMU-1 15             
1 58700U 24004A   26177.60044836  .00005805  00000+0  22313-3 0  9995
2 58700  97.4665   3.7927 0005700 313.0996  46.9765 15.26801397137213
TIANMU-1 16             
1 58701U 24004B   26177.65653668  .00005679  00000+0  21811-3 0  9991
2 58701  97.4613   3.0758 0004908 332.4024  27.6953 15.26838866137225
TIANMU-1 17             
1 58702U 24004C   26177.64199691  .00005512  00000+0  21182-3 0  9999
2 58702  97.4640   3.5497 0004580 339.8899  20.2158 15.26837579137213
TIANMU-1 18             
1 58703U 24004D   26177.48600076  .00005643  00000+0  21648-3 0  9998
2 58703  97.4659   3.6545 0003353 326.1029  33.9995 15.26886664137196
INSAT-3DS               
1 58990U 24033A   26177.61057825 -.00000144  00000+0  00000+0 0  9998
2 58990   0.0608 101.1486 0001467 344.8544 130.6115  1.00270699 47167
METEOR-M2 4             
1 59051U 24039A   26177.60926365  .00000002  00000+0  20465-4 0  9990
2 59051  98.7014 136.7890 0007789 135.6504 224.5299 14.22430414120607
GOES 19                 
1 60133U 24119A   26177.22300781 -.00000237  00000+0  00000+0 0  9997
2 60133   0.0453 166.5517 0000515 335.3386 137.5498  1.00271440  7058
MTG-S1                  
1 64723U 25143A   26175.74071355  .00000023  00000+0  00000+0 0  9993
2 64723   0.5970 340.6178 0000585 288.6722 269.7793  1.00400949  3493
METOP-SGA1              
1 65159U 25172A   26177.58284343  .00000042  00000+0  40239-4 0  9990
2 65159  98.6642 237.1111 0008125  26.4338 333.7251 14.19816524 45128
FENGYUN 3H              
1 65815U 25219A   26177.76539000  .00000031  00000+0  34793-4 0  9990
2 65815  98.6769 118.3483 0001512  70.5569 289.5771 14.19921963 38747
