OBJECT_NAME,OBJECT_ID,EPOCH,MEAN_MOTION,ECCENTRICITY,INCLINATION,RA_OF_ASC_NODE,ARG_OF_PERICENTER,MEAN_ANOMALY,EPHEMERIS_TYPE,CLASSIFICATION_TYPE,NORAD_CAT_ID,ELEMENT_SET_NO,REV_AT_EPOCH,BSTAR,MEAN_MOTION_DOT,MEAN_MOTION_DDOT
TIANMU-1 20,2023-208B,2026-06-26T14:16:13.129824,15.32897501,.00055745,97.4451,294.5882,292.7105,67.3547,0,U,58661,999,13886,.26223545E-3,.8257E-4,0
TIANMU-1 21,2023-208C,2026-06-26T15:12:48.305088,15.35235333,.00056618,97.4510,297.3493,282.1216,77.9393,0,U,58662,999,13901,.27343312E-3,.9277E-4,0
TIANMU-1 22,2023-208D,2026-06-26T14:44:45.690144,15.31181741,.00024085,97.4505,293.8910,322.2493,37.8579,0,U,58663,999,13877,.25684521E-3,.7659E-4,0
TIANMU-1 15,2024-004A,2026-06-26T14:24:38.738304,15.26801397,.00057002,97.4665,3.7927,313.0996,46.9765,0,U,58700,999,13721,.22313372E-3,.5805E-4,0
TIANMU-1 16,2024-004B,2026-06-26T15:45:24.769152,15.26838866,.00049085,97.4613,3.0758,332.4024,27.6953,0,U,58701,999,13722,.21811276E-3,.5679E-4,0
TIANMU-1 17,2024-004C,2026-06-26T15:24:28.533024,15.26837579,.000458,97.4640,3.5497,339.8899,20.2158,0,U,58702,999,13721,.21182065E-3,.5512E-4,0
TIANMU-1 18,2024-004D,2026-06-26T11:39:50.465664,15.26886664,.00033538,97.4659,3.6545,326.1029,33.9995,0,U,58703,999,13719,.21647887E-3,.5643E-4,0
INSAT-3DS,2024-033A,2026-06-26T14:39:13.960800,1.00270699,.00014674,0.0608,101.1486,344.8544,130.6115,0,U,58990,999,4716,0,-.144E-5,0
METEOR-M2 4,2024-039A,2026-06-26T14:37:20.379360,14.22430414,.00077891,98.7014,136.7890,135.6504,224.5299,0,U,59051,999,12060,.20464704E-4,.2E-7,0
GOES 19,2024-119A,2026-06-26T05:21:07.874784,1.00271440,.00005159,0.0453,166.5517,335.3386,137.5498,0,U,60133,999,705,0,-.237E-5,0
MTG-S1,2025-143A,2026-06-24T17:46:37.650720,1.00400949,.00005853,0.5970,340.6178,288.6722,269.7793,0,U,64723,999,349,0,.23E-6,0
METOP-SGA1,2025-172A,2026-06-26T13:59:17.672352,14.19816524,.00081256,98.6642,237.1111,26.4338,333.7251,0,U,65159,999,4512,.40239471E-4,.42E-6,0
FENGYUN 3H,2025-219A,2026-06-26T18:22:09.696000,14.19921963,.0001512,98.6769,118.3483,70.5569,289.5771,0,U,65815,999,3874,.34793E-4,.31E-6,0
